1 90000           19337.16666667 -.00000119  00000-0 -21780-3 0 00003
2 90000 053.8013 173.7728 0008062 268.9517 076.7012 13.39843119000016
1 90001           19337.16666667 -.00000096  00000-0 -17550-3 0 00008
2 90001 053.8013 173.7727 0008061 268.9538 083.8991 13.39843105000018
1 90002           19337.16666667 -.00000063  00000-0 -11475-3 0 00003
2 90002 053.8013 173.7727 0008061 268.9534 091.0995 13.39843080000012
1 90003           19337.16666667 -.00000022  00000-0 -40695-4 0 00006
2 90003 053.8013 173.7727 0008060 268.9509 098.3020 13.39843045000014
1 90004           19337.16666667  .00000023  00000-0  41930-4 0 00009
2 90004 053.8013 173.7727 0008060 268.9473 105.5056 13.39843002000018
1 90005           19337.16666667  .00000069  00000-0  12582-3 0 00000
2 90005 053.8013 173.7727 0008060 268.9431 112.7098 13.39842957000017
1 90006           19337.16666667  .00000113  00000-0  20638-3 0 00002
2 90006 053.8013 173.7727 0008060 268.9395 119.9135 13.39842911000018
1 90007           19337.16666667  .00000152  00000-0  27781-3 0 00002
2 90007 053.8013 173.7727 0008061 268.9374 127.1156 13.39842866000010
1 90008           19337.16666667  .00000183  00000-0  33486-3 0 00006
2 90008 053.8013 173.7727 0008061 268.9375 134.3155 13.39842828000019
1 90009           19337.16666667  .00000204  00000-0  37324-3 0 00006
2 90009 053.8013 173.7727 0008062 268.9401 141.5130 13.39842798000010
1 90010           19337.16666667  .00000213  00000-0  39003-3 0 00004
2 90010 053.8013 173.7727 0008063 268.9451 148.7080 13.39842780000012
1 90011           19337.16666667  .00000209  00000-0  38370-3 0 00006
2 90011 053.8013 173.7727 0008063 268.9521 155.9010 13.39842773000016
1 90012           19337.16666667  .00000193  00000-0  35419-3 0 00000
2 90012 053.8013 173.7728 0008063 268.9604 163.0928 13.39842781000017
1 90013           19337.16666667  .00000165  00000-0  30297-3 0 00009
2 90013 053.8013 173.7728 0008063 268.9688 170.2843 13.39842801000019
1 90014           19337.16666667  .00000127  00000-0  23298-3 0 00001
2 90014 053.8013 173.7728 0008062 268.9763 177.4768 13.39842835000015
1 90015           19337.16666667  .00000081  00000-0  14840-3 0 00004
2 90015 053.8013 173.7728 0008061 268.9818 184.6713 13.39842880000016
1 90016           19337.16666667  .00000030  00000-0  54332-4 0 00000
2 90016 053.8013 173.7728 0008059 268.9844 191.8686 13.39842934000012
1 90017           19337.16666667 -.00000024  00000-0 -43436-4 0 00009
2 90017 053.8013 173.7728 0008058 268.9838 199.0692 13.39842994000018
1 90018           19337.16666667 -.00000076  00000-0 -13879-3 0 00004
2 90018 053.8013 173.7728 0008056 268.9799 206.2730 13.39843056000017
1 90019           19337.16666667 -.00000123  00000-0 -22565-3 0 00000
2 90019 053.8013 173.7728 0008055 268.9731 213.4797 13.39843117000014
1 90020           19337.16666667 -.00000163  00000-0 -29843-3 0 00002
2 90020 053.8013 173.7728 0008054 268.9643 220.6885 13.39843174000018
1 90021           19337.16666667 -.00000192  00000-0 -35241-3 0 00004
2 90021 053.8013 173.7728 0008054 268.9544 227.8984 13.39843222000012
1 90022           19337.16666667 -.00000209  00000-0 -38398-3 0 00000
2 90022 053.8013 173.7728 0008054 268.9446 235.1081 13.39843260000016
1 90023           19337.16666667 -.00000213  00000-0 -39065-3 0 00008
2 90023 053.8013 173.7728 0008055 268.9361 242.3166 13.39843285000015
1 90024           19337.16666667 -.00000203  00000-0 -37135-3 0 00004
2 90024 053.8013 173.7728 0008056 268.9299 249.5227 13.39843295000015
1 90025           19337.16666667 -.00000178  00000-0 -32675-3 0 00000
2 90025 053.8013 173.7728 0008057 268.9268 256.7259 13.39843290000013
1 90026           19337.16666667 -.00000143  00000-0 -26158-3 0 00002
2 90026 053.8013 173.7727 0008058 268.9265 263.9261 13.39843272000014
1 90027           19337.16666667 -.00000096  00000-0 -17625-3 0 00009
2 90027 053.8013 173.7727 0008059 268.9296 271.1230 13.39843239000010
1 90028           19337.16666667 -.00000042  00000-0 -76733-4 0 00007
2 90028 053.8013 173.7727 0008060 268.9353 278.3174 13.39843194000013
1 90029           19337.16666667  .00000018  00000-0  32717-4 0 00003
2 90029 053.8013 173.7727 0008060 268.9426 285.5101 13.39843138000013
1 90030           19337.16666667  .00000078  00000-0  14240-3 0 00001
2 90030 053.8013 173.7727 0008060 268.9503 292.7024 13.39843079000019
1 90031           19337.16666667  .00000136  00000-0  24859-3 0 00004
2 90031 053.8013 173.7727 0008060 268.9574 299.8954 13.39843016000019
1 90032           19337.16666667  .00000188  00000-0  34517-3 0 00004
2 90032 053.8013 173.7727 0008059 268.9626 307.0903 13.39842954000012
1 90033           19337.16666667  .00000233  00000-0  42647-3 0 00009
2 90033 053.8013 173.7727 0008058 268.9651 314.2878 13.39842896000016
1 90034           19337.16666667  .00000266  00000-0  48782-3 0 00002
2 90034 053.8013 173.7727 0008057 268.9644 321.4886 13.39842846000012
1 90035           19337.16666667  .00000287  00000-0  52596-3 0 00004
2 90035 053.8013 173.7727 0008056 268.9604 328.6926 13.39842805000017
1 90036           19337.16666667  .00000294  00000-0  53904-3 0 00007
2 90036 053.8013 173.7727 0008055 268.9536 335.8995 13.39842777000015
1 90037           19337.16666667  .00000287  00000-0  52664-3 0 00002
2 90037 053.8013 173.7728 0008054 268.9446 343.1085 13.39842762000012
1 90038           19337.16666667  .00000267  00000-0  48980-3 0 00007
2 90038 053.8013 173.7728 0008054 268.9345 350.3186 13.39842761000012
1 90039           19337.16666667  .00000235  00000-0  43110-3 0 00003
2 90039 053.8013 173.7728 0008055 268.9246 357.5285 13.39842774000017
1 90040           19337.16666667  .00000193  00000-0  35445-3 0 00000
2 90040 053.8013 173.7728 0008055 268.9162 004.7369 13.39842799000017
1 90041           19337.16666667  .00000144  00000-0  26487-3 0 00003
2 90041 053.8013 173.7728 0008057 268.9101 011.9429 13.39842834000010
1 90042           19337.16666667  .00000092  00000-0  16815-3 0 00000
2 90042 053.8013 173.7728 0008058 268.9071 019.1459 13.39842877000018
1 90043           19337.16666667  .00000038  00000-0  70450-4 0 00007
2 90043 053.8013 173.7728 0008060 268.9074 026.3456 13.39842924000015
1 90044           19337.16666667 -.00000012  00000-0 -22064-4 0 00000
2 90044 053.8013 173.7728 0008061 268.9108 033.5422 13.39842972000011
1 90045           19337.16666667 -.00000057  00000-0 -10369-3 0 00004
2 90045 053.8013 173.7728 0008062 268.9167 040.7362 13.39843018000013
1 90046           19337.16666667 -.00000092  00000-0 -16955-3 0 00001
2 90046 053.8013 173.7728 0008063 268.9244 047.9285 13.39843058000018
1 90047           19337.16666667 -.00000118  00000-0 -21582-3 0 00003
2 90047 053.8013 173.7728 0008063 268.9327 055.1201 13.39843090000016
1 90048           19337.16666667 -.00000131  00000-0 -23985-3 0 00008
2 90048 053.8013 173.7728 0008063 268.9407 062.3122 13.39843112000013
1 90049           19337.16666667 -.00000131  00000-0 -24038-3 0 00009
2 90049 053.8013 173.7728 0008063 268.9472 069.5056 13.39843122000012
